LANDSAT 9               
1 49260U 21088A   24039.18001405  .00000731  00000+0  17219-3 0  9990
2 49260  98.2029 110.9172 0001004 105.6229 254.5081 14.57115058125756
